DAWN-DC-01
1 91001U 26001A   26089.50000000  .00000120  00000+0  12000-4 0  9991
2 91001  96.9500  11.8000 0001200  38.0000  52.0000 15.13000000 00011
DAWN-DC-02
1 91002U 26001B   26089.50000000  .00000118  00000+0  11800-4 0  9992
2 91002  97.2500  13.5000 0001800  46.0000  47.0000 15.12996000 00012
DAWN-DC-03
1 91003U 26001C   26089.50000000  .00000122  00000+0  12100-4 0  9993
2 91003  97.5500  15.2000 0002500  54.0000  42.0000 15.13004000 00013
DAWN-DC-04
1 91004U 26001D   26089.50000000  .00000119  00000+0  11900-4 0  9994
2 91004  97.8500  16.9000 0002200  62.0000  37.0000 15.12992000 00014
DAWN-DC-05
1 91005U 26001E   26089.50000000  .00000121  00000+0  12050-4 0  9995
2 91005  98.1500  18.6000 0003000  70.0000  32.0000 15.13002000 00015
DAWN-DC-06
1 91006U 26001F   26089.50000000  .00000117  00000+0  11750-4 0  9996
2 91006  98.4500  20.3000 0002800  78.0000  27.0000 15.12988000 00016
DAWN-DC-07
1 91007U 26001G   26089.50000000  .00000123  00000+0  12150-4 0  9997
2 91007  98.7500  22.0000 0003400  86.0000  22.0000 15.13006000 00017
DAWN-DC-08
1 91008U 26001H   26089.50000000  .00000116  00000+0  11650-4 0  9998
2 91008  99.0500  23.7000 0002600  94.0000  17.0000 15.12984000 00018
