BIZ-RELAY-01
1 92001U 26021A   26089.50000000  .00000010  00000+0  10000-5 0  9991
2 92001  68.0000 108.0000 0015000  20.0000  80.0000 12.80000000 00011
BIZ-RELAY-02
1 92002U 26021B   26089.50000000  .00000009  00000+0   9800-6 0  9992
2 92002  68.0000 114.0000 0015000  20.0000  80.0000 12.80000000 00012
BIZ-RELAY-03
1 92003U 26021C   26089.50000000  .00000008  00000+0   9600-6 0  9993
2 92003  60.0000 114.0000 0015000  20.0000 180.0000 11.20000000 00013
BIZ-RELAY-04
1 92004U 26021D   26089.50000000  .00000007  00000+0   9400-6 0  9994
2 92004  68.0000 108.0000 0015000  20.0000 160.0000 11.60000000 00014
